{
    "links": {
        "self": "http://www.neowsapp.com/rest/v1/neo/3263252?api_key=iIulBulltgU6a56xZRHN4H3l9WmuAYTsLGpBGhQ2"
    },
    "id": "3263252",
    "neo_reference_id": "3263252",
    "name": "(2004 XH3)",
    "designation": "2004 XH3",
    "nasa_jpl_url": "http://ssd.jpl.nasa.gov/sbdb.cgi?sstr=3263252",
    "absolute_magnitude_h": 24.1,
    "estimated_diameter": {
        "kilometers": {
            "estimated_diameter_min": 0.040230458,
            "estimated_diameter_max": 0.0899580388
        },
        "meters": {
            "estimated_diameter_min": 40.2304579834,
            "estimated_diameter_max": 89.9580388169
        },
        "miles": {
            "estimated_diameter_min": 0.0249980399,
            "estimated_diameter_max": 0.0558973165
        },
        "feet": {
            "estimated_diameter_min": 131.9896957704,
            "estimated_diameter_max": 295.1379320721
        }
    },
    "is_potentially_hazardous_asteroid": false,
    "close_approach_data": [
        {
            "close_approach_date": "2004-12-06",
            "close_approach_date_full": "2004-Dec-06 13:59",
            "epoch_date_close_approach": 1102341540000,
            "relative_velocity": {
                "kilometers_per_second": "9.8314954752",
                "kilometers_per_hour": "35393.3837106458",
                "miles_per_hour": "21992.0722284288"
            },
            "miss_distance": {
                "astronomical": "0.030225423",
                "lunar": "11.757689547",
                "kilometers": "4521658.90064901",
                "miles": "2809628.556655938"
            },
            "orbiting_body": "Earth"
        },
        {
            "close_approach_date": "2049-11-14",
            "close_approach_date_full": "2049-Nov-14 11:08",
            "epoch_date_close_approach": 2520500880000,
            "relative_velocity": {
                "kilometers_per_second": "17.7681603008",
                "kilometers_per_hour": "63965.3770828566",
                "miles_per_hour": "39745.597776845"
            },
            "miss_distance": {
                "astronomical": "0.2859463686",
                "lunar": "111.2331373854",
                "kilometers": "42776967.676794882",
                "miles": "26580375.1659860916"
            },
            "orbiting_body": "Earth"
        }
    ],
    "orbital_data": {
        "orbit_id": "7",
        "orbit_determination_date": "2017-04-06 09:11:50",
        "first_observation_date": "2004-12-01",
        "last_observation_date": "2004-12-07",
        "data_arc_in_days": 6,
        "observations_used": 24,
        "orbit_uncertainty": "8",
        "minimum_orbit_intersection": ".00782899",
        "jupiter_tisserand_invariant": "3.755",
        "epoch_osculation": "2453343.5",
        "eccentricity": ".5124560065895712",
        "semi_major_axis": "1.91654802658571",
        "inclination": "4.019484697716231",
        "ascending_node_longitude": "266.7158647135795",
        "orbital_period": "969.1209607734025",
        "perihelion_distance": ".9344014784444739",
        "perihelion_argument": "204.8629192784354",
        "aphelion_distance": "2.898694574726947",
        "perihelion_time": "2453373.677917456685",
        "mean_anomaly": "348.789789175815",
        "mean_motion": ".3714706569886835",
        "equinox": "J2000",
        "orbit_class": {
            "orbit_class_type": "APO",
            "orbit_class_description": "Near-Earth asteroid orbits which cross the Earth’s orbit similar to that of 1862 Apollo",
            "orbit_class_range": "a (semi-major axis) > 1.0 AU; q (perihelion) < 1.017 AU"
        }
    },
    "is_sentry_object": false
}